XRISM                   
1 57800U 23137A   24149.41253059  .00003645  00000+0  27228-3 0  9996
2 57800  31.0019 138.4701 0009455  10.8706 349.2133 15.00997007 39639
